{"type": "FeatureCollection", "features": [ {"type": "Feature", "properties": {"norad_id": 54234, "name": "NOAA 21 (JPSS-2)", "group": "weather", "lat": -14.996991509503667, "lon": -73.89168336279289, "alt_km": 830.6093990857735, "timestamp": "2025-12-13T10:41:25.408654+00:00", "meta": {"OBJECT_NAME": "NOAA 21 (JPSS-2)", "OBJECT_ID": "2022-150A", "EPOCH": "2025-12-12T22:55:12.313632", "MEAN_MOTION": 14.19524464, "ECCENTRICITY": 0.00022206, "INCLINATION": 98.7462, "RA_OF_ASC_NODE": 283.2605, "ARG_OF_PERICENTER": 37.8624, "MEAN_ANOMALY": 322.2708, "EPHEMERIS_TYPE": 0, "CLASSIFICATION_TYPE": "U", "NORAD_CAT_ID": 54234, "ELEMENT_SET_NO": 999, "REV_AT_EPOCH": 16012, "BSTAR": 0.00010430791, "MEAN_MOTION_DOT": 1.76e-06, "MEAN_MOTION_DDOT": 0}, "tle": {"line1": "1 54234U 22150A   25346.95500363  .00000176  00000+0  10431-3 0  9994", "line2": "2 54234  98.7462 283.2605 0002220  37.8624 322.2708 14.19524464160122"}}, "geometry": {"type": "Point", "coordinates": [-73.89168336279289, -14.996991509503667]}}, {"type": "Feature", "properties": {"norad_id": 54743, "name": "METEOSAT-12 (MTG-I1)", "group": "weather", "lat": -0.4500245898608194, "lon": -117.54243940666026, "alt_km": 35779.97956087849, "timestamp": "2025-12-13T10:41:25.408667+00:00", "meta": {"OBJECT_NAME": "METEOSAT-12 (MTG-I1)", "OBJECT_ID": "2022-170C", "EPOCH": "2025-12-12T22:02:19.582080", "MEAN_MOTION": 1.00269096, "ECCENTRICITY": 0.00017147, "INCLINATION": 0.6872, "RA_OF_ASC_NODE": 23.6564, "ARG_OF_PERICENTER": 237.036, "MEAN_ANOMALY": 151.4914, "EPHEMERIS_TYPE": 0, "CLASSIFICATION_TYPE": "U", "NORAD_CAT_ID": 54743, "ELEMENT_SET_NO": 999, "REV_AT_EPOCH": 1111, "BSTAR": 0, "MEAN_MOTION_DOT": 5e-08, "MEAN_MOTION_DDOT": 0}, "tle": {"line1": "1 54743U 22170C   25346.91828220  .00000005  00000+0  00000+0 0  9990", "line2": "2 54743   0.6872  23.6564 0001714 237.0360 151.4914  1.00269096 11110"}}, "geometry": {"type": "Point", "coordinates": [-117.54243940666026, -0.4500245898608194]}}, {"type": "Feature", "properties": {"norad_id": 55973, "name": "TIANMU-1 03", "group": "weather", "lat": -38.33683943796016, "lon": -35.87251085743521, "alt_km": 452.6286332765758, "timestamp": "2025-12-13T10:41:25.408678+00:00", "meta": {"OBJECT_NAME": "TIANMU-1 03", "OBJECT_ID": "2023-039A", "EPOCH": "2025-12-13T00:23:37.416192", "MEAN_MOTION": 15.40933771, "ECCENTRICITY": 0.00043949, "INCLINATION": 97.5108, "RA_OF_ASC_NODE": 149.6755, "ARG_OF_PERICENTER": 60.5641, "MEAN_ANOMALY": 299.6043, "EPHEMERIS_TYPE": 0, "CLASSIFICATION_TYPE": "U", "NORAD_CAT_ID": 55973, "ELEMENT_SET_NO": 999, "REV_AT_EPOCH": 15210, "BSTAR": 0.0005059729, "MEAN_MOTION_DOT": 0.00020767, "MEAN_MOTION_DDOT": 0}, "tle": {"line1": "1 55973U 23039A   25347.01640528  .00020767  00000+0  50597-3 0  9993", "line2": "2 55973  97.5108 149.6755 0004394  60.5641 299.6043 15.40933771152102"}}, "geometry": {"type": "Point", "coordinates": [-35.87251085743521, -38.33683943796016]}}, {"type": "Feature", "properties": {"norad_id": 55974, "name": "TIANMU-1 04", "group": "weather", "lat": -26.497524232574882, "lon": 153.07492992223698, "alt_km": 447.5363036066492, "timestamp": "2025-12-13T10:41:25.408691+00:00", "meta": {"OBJECT_NAME": "TIANMU-1 04", "OBJECT_ID": "2023-039B", "EPOCH": "2025-12-12T23:53:56.509152", "MEAN_MOTION": 15.41270446, "ECCENTRICITY": 0.00050344, "INCLINATION": 97.5039, "RA_OF_ASC_NODE": 148.8452, "ARG_OF_PERICENTER": 55.3583, "MEAN_ANOMALY": 304.8137, "EPHEMERIS_TYPE": 0, "CLASSIFICATION_TYPE": "U", "NORAD_CAT_ID": 55974, "ELEMENT_SET_NO": 999, "REV_AT_EPOCH": 15210, "BSTAR": 0.00052153304, "MEAN_MOTION_DOT": 0.00021653, "MEAN_MOTION_DDOT": 0}, "tle": {"line1": "1 55974U 23039B   25346.99579293  .00021653  00000+0  52153-3 0  9995", "line2": "2 55974  97.5039 148.8452 0005034  55.3583 304.8137 15.41270446152107"}}, "geometry": {"type": "Point", "coordinates": [153.07492992223698, -26.497524232574882]}}, {"type": "Feature", "properties": {"norad_id": 55975, "name": "TIANMU-1 05", "group": "weather", "lat": 4.158056655202538, "lon": 149.25005613051235, "alt_km": 445.05016293571225, "timestamp": "2025-12-13T10:41:25.408702+00:00", "meta": {"OBJECT_NAME": "TIANMU-1 05", "OBJECT_ID": "2023-039C", "EPOCH": "2025-12-12T23:45:44.803296", "MEAN_MOTION": 15.40890426, "ECCENTRICITY": 0.0004351, "INCLINATION": 97.5086, "RA_OF_ASC_NODE": 149.3317, "ARG_OF_PERICENTER": 77.7496, "MEAN_ANOMALY": 282.4237, "EPHEMERIS_TYPE": 0, "CLASSIFICATION_TYPE": "U", "NORAD_CAT_ID": 55975, "ELEMENT_SET_NO": 999, "REV_AT_EPOCH": 15208, "BSTAR": 0.00051271301, "MEAN_MOTION_DOT": 0.00021015, "MEAN_MOTION_DDOT": 0}, "tle": {"line1": "1 55975U 23039C   25346.99010189  .00021015  00000+0  51271-3 0  9992", "line2": "2 55975  97.5086 149.3317 0004351  77.7496 282.4237 15.40890426152082"}}, "geometry": {"type": "Point", "coordinates": [149.25005613051235, 4.158056655202538]}}, {"type": "Feature", "properties": {"norad_id": 55976, "name": "TIANMU-1 06", "group": "weather", "lat": -38.25769628476815, "lon": 156.2361526355619, "alt_km": 449.7243404054698, "timestamp": "2025-12-13T10:41:25.408712+00:00", "meta": {"OBJECT_NAME": "TIANMU-1 06", "OBJECT_ID": "2023-039D", "EPOCH": "2025-12-12T23:57:03.671424", "MEAN_MOTION": 15.41322297, "ECCENTRICITY": 0.00046287, "INCLINATION": 97.5097, "RA_OF_ASC_NODE": 149.8051, "ARG_OF_PERICENTER": 72.7357, "MEAN_ANOMALY": 287.4396, "EPHEMERIS_TYPE": 0, "CLASSIFICATION_TYPE": "U", "NORAD_CAT_ID": 55976, "ELEMENT_SET_NO": 999, "REV_AT_EPOCH": 15210, "BSTAR": 0.00051560052, "MEAN_MOTION_DOT": 0.0002144, "MEAN_MOTION_DDOT": 0}, "tle": {"line1": "1 55976U 23039D   25346.99795916  .00021440  00000+0  51560-3 0  9994", "line2": "2 55976  97.5097 149.8051 0004628  72.7357 287.4396 15.41322297152104"}}, "geometry": {"type": "Point", "coordinates": [156.2361526355619, -38.25769628476815]}}, {"type": "Feature", "properties": {"norad_id": 56232, "name": "FENGYUN 3G", "group": "weather", "lat": 48.34777485161873, "lon": -65.40682867875685, "alt_km": 397.34745663077865, "timestamp": "2025-12-13T10:41:25.408724+00:00", "meta": {"OBJECT_NAME": "FENGYUN 3G", "OBJECT_ID": "2023-055A", "EPOCH": "2025-12-13T01:05:51.421056", "MEAN_MOTION": 15.53669979, "ECCENTRICITY": 0.00093168, "INCLINATION": 49.9933, "RA_OF_ASC_NODE": 225.8758, "ARG_OF_PERICENTER": 149.7173, "MEAN_ANOMALY": 210.4335, "EPHEMERIS_TYPE": 0, "CLASSIFICATION_TYPE": "U", "NORAD_CAT_ID": 56232, "ELEMENT_SET_NO": 999, "REV_AT_EPOCH": 15107, "BSTAR": 0.00066174654, "MEAN_MOTION_DOT": 0.00042973, "MEAN_MOTION_DDOT": 0}, "tle": {"line1": "1 56232U 23055A   25347.04573404  .00042973  00000+0  66175-3 0  9993", "line2": "2 56232  49.9933 225.8758 0009316 149.7173 210.4335 15.53669979151077"}}, "geometry": {"type": "Point", "coordinates": [-65.40682867875685, 48.34777485161873]}}, {"type": "Feature", "properties": {"norad_id": 57166, "name": "METEOR-M2 3", "group": "weather", "lat": -78.84411977720569, "lon": 170.54573372071542, "alt_km": 819.7690464368397, "timestamp": "2025-12-13T10:41:25.408734+00:00", "meta": {"OBJECT_NAME": "METEOR-M2 3", "OBJECT_ID": "2023-091A", "EPOCH": "2025-12-13T01:01:39.654912", "MEAN_MOTION": 14.24026147, "ECCENTRICITY": 0.00038889, "INCLINATION": 98.6378, "RA_OF_ASC_NODE": 40.5769, "ARG_OF_PERICENTER": 8.1347, "MEAN_ANOMALY": 351.9895, "EPHEMERIS_TYPE": 0, "CLASSIFICATION_TYPE": "U", "NORAD_CAT_ID": 57166, "ELEMENT_SET_NO": 999, "REV_AT_EPOCH": 12802, "BSTAR": 3.1617074e-05, "MEAN_MOTION_DOT": 2.9e-07, "MEAN_MOTION_DDOT": 0}, "tle": {"line1": "1 57166U 23091A   25347.04282008  .00000029  00000+0  31617-4 0  9997", "line2": "2 57166  98.6378  40.5769 0003888   8.1347 351.9895 14.24026147128023"}}, "geometry": {"type": "Point", "coordinates": [170.54573372071542, -78.84411977720569]}}, {"type": "Feature", "properties": {"norad_id": 57399, "name": "TIANMU-1 07", "group": "weather", "lat": -6.268714810951552, "lon": 38.08515676350116, "alt_km": 485.11794780291257, "timestamp": "2025-12-13T10:41:25.408744+00:00", "meta": {"OBJECT_NAME": "TIANMU-1 07", "OBJECT_ID": "2023-101A", "EPOCH": "2025-12-12T23:43:00.135264", "MEAN_MOTION": 15.2807741, "ECCENTRICITY": 0.00056001, "INCLINATION": 97.2882, "RA_OF_ASC_NODE": 36.8324, "ARG_OF_PERICENTER": 81.0223, "MEAN_ANOMALY": 279.1651, "EPHEMERIS_TYPE": 0, "CLASSIFICATION_TYPE": "U", "NORAD_CAT_ID": 57399, "ELEMENT_SET_NO": 999, "REV_AT_EPOCH": 13319, "BSTAR": 0.00037593333, "MEAN_MOTION_DOT": 0.00010229, "MEAN_MOTION_DDOT": 0}, "tle": {"line1": "1 57399U 23101A   25346.98819601  .00010229  00000+0  37593-3 0  9995", "line2": "2 57399  97.2882  36.8324 0005600  81.0223 279.1651 15.28077410133197"}}, "geometry": {"type": "Point", "coordinates": [38.08515676350116, -6.268714810951552]}}, {"type": "Feature", "properties": {"norad_id": 57400, "name": "TIANMU-1 08", "group": "weather", "lat": 4.198120552535209, "lon": -142.384307712434, "alt_km": 484.4636745517564, "timestamp": "2025-12-13T10:41:25.408754+00:00", "meta": {"OBJECT_NAME": "TIANMU-1 08", "OBJECT_ID": "2023-101B", "EPOCH": "2025-12-13T00:29:42.437184", "MEAN_MOTION": 15.28061798, "ECCENTRICITY": 0.00075113, "INCLINATION": 97.287, "RA_OF_ASC_NODE": 36.6621, "ARG_OF_PERICENTER": 83.2699, "MEAN_ANOMALY": 276.9395, "EPHEMERIS_TYPE": 0, "CLASSIFICATION_TYPE": "U", "NORAD_CAT_ID": 57400, "ELEMENT_SET_NO": 999, "REV_AT_EPOCH": 13319, "BSTAR": 0.00040540872, "MEAN_MOTION_DOT": 0.00011036, "MEAN_MOTION_DDOT": 0}, "tle": {"line1": "1 57400U 23101B   25347.02063006  .00011036  00000+0  40541-3 0  9998", "line2": "2 57400  97.2870  36.6621 0007511  83.2699 276.9395 15.28061798133191"}}, "geometry": {"type": "Point", "coordinates": [-142.384307712434, 4.198120552535209]}}]}